SL-14 R/B               
1 19574U 88093B   17346.52257431  .00000087  00000-0  77750-5 0  9990
2 19574  82.5309 338.3301 0020171 247.1496 260.1229 14.83247143575882
